ONEWEB-0171             
1 48070U 21025AE  24343.53126481  .00000175  00000+0  44417-3 0  9990
2 48070  87.8933  70.7652 0001559 103.8556 256.2747 13.13471083180670
ONEWEB-0172             
1 48071U 21025AF  24343.51063404 -.00000346  00000+0 -98326-3 0  9994
2 48071  87.8932  70.7352 0001554 107.1012 253.0287 13.13469551181566
ONEWEB-0174             
1 48072U 21025AG  24343.49316820 -.00000008  00000+0 -56024-4 0  9990
2 48072  87.8936  70.7535 0001766 106.5924 253.5399 13.13468778180887
ONEWEB-0175             
1 48073U 21025AH  24343.29319836 -.00000062  00000+0 -20543-3 0  9995
2 48073  87.8926  70.7712 0001369  95.0430 265.0856 13.13469752180516
ONEWEB-0177             
1 48074U 21025AJ  24343.53444206  .00000148  00000+0  37103-3 0  9996
2 48074  87.8928  70.7339 0001673 116.6619 243.4681 13.13470552180731
ONEWEB-0178             
1 48075U 21025AK  24343.55203985  .00000326  00000+0  85672-3 0  9998
2 48075  87.8937  70.7604 0001627 111.7294 248.4009 13.13469095180785
ONEWEB-0108             
1 48076U 21025AL  24343.51221619 -.00000262  00000+0 -75207-3 0  9993
2 48076  87.8928  70.7344 0001879 100.6687 259.4654 13.13470091180707
ONEWEB-0169             
1 48077U 21025AM  24343.54396069  .00000338  00000+0  88977-3 0  9999
2 48077  87.8930  70.7428 0001915 100.1640 259.9706 13.13469966179361
